{"type": "FeatureCollection", "features": [ {"type": "Feature", "properties": {"norad_id": 66676, "name": "TRANSPORTER-15 L", "group": "last-30-days", "lat": 29.5973504059706, "lon": 63.110417003356744, "alt_km": 516.2171601773789, "timestamp": "2025-12-21T18:54:57.222438+00:00", "meta": {"OBJECT_NAME": "TRANSPORTER-15 L", "OBJECT_ID": "2025-276L", "EPOCH": "2025-12-21T10:52:04.823904", "MEAN_MOTION": 15.16775553, "ECCENTRICITY": 0.0004783, "INCLINATION": 97.4394, "RA_OF_ASC_NODE": 67.0379, "ARG_OF_PERICENTER": 263.2221, "MEAN_ANOMALY": 96.8469, "EPHEMERIS_TYPE": 0, "CLASSIFICATION_TYPE": "U", "NORAD_CAT_ID": 66676, "ELEMENT_SET_NO": 999, "REV_AT_EPOCH": 344, "BSTAR": 0.00036566431, "MEAN_MOTION_DOT": 7.117e-05, "MEAN_MOTION_DDOT": 0}, "tle": {"line1": "1 66676U 25276L   25355.45283361  .00007117  00000+0  36566-3 0  9999", "line2": "2 66676  97.4394  67.0379 0004783 263.2221  96.8469 15.16775553  3449"}}, "geometry": {"type": "Point", "coordinates": [63.110417003356744, 29.5973504059706]}}, {"type": "Feature", "properties": {"norad_id": 66677, "name": "TRANSPORTER-15 M", "group": "last-30-days", "lat": 68.65474630265062, "lon": 47.848668832167085, "alt_km": 509.4201893956897, "timestamp": "2025-12-21T18:54:57.222452+00:00", "meta": {"OBJECT_NAME": "TRANSPORTER-15 M", "OBJECT_ID": "2025-276M", "EPOCH": "2025-12-21T10:41:44.082240", "MEAN_MOTION": 15.17434681, "ECCENTRICITY": 0.00038385, "INCLINATION": 97.4389, "RA_OF_ASC_NODE": 67.0448, "ARG_OF_PERICENTER": 270.5853, "MEAN_ANOMALY": 89.494, "EPHEMERIS_TYPE": 0, "CLASSIFICATION_TYPE": "U", "NORAD_CAT_ID": 66677, "ELEMENT_SET_NO": 999, "REV_AT_EPOCH": 344, "BSTAR": 0.00055445905, "MEAN_MOTION_DOT": 0.00011036, "MEAN_MOTION_DDOT": 0}, "tle": {"line1": "1 66677U 25276M   25355.44564910  .00011036  00000+0  55446-3 0  9994", "line2": "2 66677  97.4389  67.0448 0003838 270.5853  89.4940 15.17434681  3440"}}, "geometry": {"type": "Point", "coordinates": [47.848668832167085, 68.65474630265062]}}, {"type": "Feature", "properties": {"norad_id": 66678, "name": "TRANSPORTER-15 N", "group": "last-30-days", "lat": 32.868787913929545, "lon": 62.5318849260704, "alt_km": 516.0104749027378, "timestamp": "2025-12-21T18:54:57.222462+00:00", "meta": {"OBJECT_NAME": "TRANSPORTER-15 N", "OBJECT_ID": "2025-276N", "EPOCH": "2025-12-21T12:26:13.184160", "MEAN_MOTION": 15.16833494, "ECCENTRICITY": 0.00048548, "INCLINATION": 97.4427, "RA_OF_ASC_NODE": 67.1124, "ARG_OF_PERICENTER": 255.3791, "MEAN_ANOMALY": 104.6904, "EPHEMERIS_TYPE": 0, "CLASSIFICATION_TYPE": "U", "NORAD_CAT_ID": 66678, "ELEMENT_SET_NO": 999, "REV_AT_EPOCH": 345, "BSTAR": 0.00038656781, "MEAN_MOTION_DOT": 7.54e-05, "MEAN_MOTION_DDOT": 0}, "tle": {"line1": "1 66678U 25276N   25355.51820815  .00007540  00000+0  38657-3 0  9992", "line2": "2 66678  97.4427  67.1124 0004854 255.3791 104.6904 15.16833494  3452"}}, "geometry": {"type": "Point", "coordinates": [62.5318849260704, 32.868787913929545]}}, {"type": "Feature", "properties": {"norad_id": 66679, "name": "TRANSPORTER-15 P", "group": "last-30-days", "lat": 29.05141886608772, "lon": 63.195942160365995, "alt_km": 511.57045904139704, "timestamp": "2025-12-21T18:54:57.222472+00:00", "meta": {"OBJECT_NAME": "TRANSPORTER-15 P", "OBJECT_ID": "2025-276P", "EPOCH": "2025-12-21T10:52:32.598048", "MEAN_MOTION": 15.17590497, "ECCENTRICITY": 0.00037983, "INCLINATION": 97.4397, "RA_OF_ASC_NODE": 67.0293, "ARG_OF_PERICENTER": 283.1797, "MEAN_ANOMALY": 76.9013, "EPHEMERIS_TYPE": 0, "CLASSIFICATION_TYPE": "U", "NORAD_CAT_ID": 66679, "ELEMENT_SET_NO": 999, "REV_AT_EPOCH": 344, "BSTAR": 0.026256086, "MEAN_MOTION_DOT": 0.0056315, "MEAN_MOTION_DDOT": 0}, "tle": {"line1": "1 66679U 25276P   25355.45315507  .00563150  00000+0  26256-1 0  9997", "line2": "2 66679  97.4397  67.0293 0003798 283.1797  76.9013 15.17590497  3441"}}, "geometry": {"type": "Point", "coordinates": [63.195942160365995, 29.05141886608772]}}, {"type": "Feature", "properties": {"norad_id": 66680, "name": "TRANSPORTER-15 Q", "group": "last-30-days", "lat": 33.96557750571646, "lon": 62.323369577270135, "alt_km": 515.9481423771704, "timestamp": "2025-12-21T18:54:57.222481+00:00", "meta": {"OBJECT_NAME": "TRANSPORTER-15 Q", "OBJECT_ID": "2025-276Q", "EPOCH": "2025-12-21T10:50:55.487040", "MEAN_MOTION": 15.16811066, "ECCENTRICITY": 0.00046661, "INCLINATION": 97.4419, "RA_OF_ASC_NODE": 67.045, "ARG_OF_PERICENTER": 252.6205, "MEAN_ANOMALY": 107.4519, "EPHEMERIS_TYPE": 0, "CLASSIFICATION_TYPE": "U", "NORAD_CAT_ID": 66680, "ELEMENT_SET_NO": 999, "REV_AT_EPOCH": 344, "BSTAR": 0.00037013738, "MEAN_MOTION_DOT": 7.212e-05, "MEAN_MOTION_DDOT": 0}, "tle": {"line1": "1 66680U 25276Q   25355.45203110  .00007212  00000+0  37014-3 0  9993", "line2": "2 66680  97.4419  67.0450 0004666 252.6205 107.4519 15.16811066  3441"}}, "geometry": {"type": "Point", "coordinates": [62.323369577270135, 33.96557750571646]}}, {"type": "Feature", "properties": {"norad_id": 66681, "name": "TRANSPORTER-15 R", "group": "last-30-days", "lat": 58.80430169505679, "lon": 54.91115041029814, "alt_km": 510.645922549671, "timestamp": "2025-12-21T18:54:57.222494+00:00", "meta": {"OBJECT_NAME": "TRANSPORTER-15 R", "OBJECT_ID": "2025-276R", "EPOCH": "2025-12-21T10:44:26.322432", "MEAN_MOTION": 15.17383686, "ECCENTRICITY": 0.00049127, "INCLINATION": 97.434, "RA_OF_ASC_NODE": 67.0297, "ARG_OF_PERICENTER": 281.5127, "MEAN_ANOMALY": 78.5555, "EPHEMERIS_TYPE": 0, "CLASSIFICATION_TYPE": "U", "NORAD_CAT_ID": 66681, "ELEMENT_SET_NO": 999, "REV_AT_EPOCH": 344, "BSTAR": 0.00065592155, "MEAN_MOTION_DOT": 0.00013053, "MEAN_MOTION_DDOT": 0}, "tle": {"line1": "1 66681U 25276R   25355.44752688  .00013053  00000+0  65592-3 0  9994", "line2": "2 66681  97.4340  67.0297 0004912 281.5127  78.5555 15.17383686  3443"}}, "geometry": {"type": "Point", "coordinates": [54.91115041029814, 58.80430169505679]}}, {"type": "Feature", "properties": {"norad_id": 66682, "name": "TRANSPORTER-15 S", "group": "last-30-days", "lat": 47.774930703609755, "lon": 59.10702433642612, "alt_km": 513.5697402398064, "timestamp": "2025-12-21T18:54:57.222504+00:00", "meta": {"OBJECT_NAME": "TRANSPORTER-15 S", "OBJECT_ID": "2025-276S", "EPOCH": "2025-12-21T10:47:19.200192", "MEAN_MOTION": 15.1710325, "ECCENTRICITY": 0.00048013, "INCLINATION": 97.4462, "RA_OF_ASC_NODE": 67.0602, "ARG_OF_PERICENTER": 245.0806, "MEAN_ANOMALY": 114.9929, "EPHEMERIS_TYPE": 0, "CLASSIFICATION_TYPE": "U", "NORAD_CAT_ID": 66682, "ELEMENT_SET_NO": 999, "REV_AT_EPOCH": 344, "BSTAR": 0.00042355791, "MEAN_MOTION_DOT": 8.333e-05, "MEAN_MOTION_DDOT": 0}, "tle": {"line1": "1 66682U 25276S   25355.44952778  .00008333  00000+0  42356-3 0  9995", "line2": "2 66682  97.4462  67.0602 0004801 245.0806 114.9929 15.17103250  3442"}}, "geometry": {"type": "Point", "coordinates": [59.10702433642612, 47.774930703609755]}}, {"type": "Feature", "properties": {"norad_id": 66683, "name": "TRANSPORTER-15 T", "group": "last-30-days", "lat": 43.778520412470975, "lon": 60.19076510008574, "alt_km": 514.2686637996703, "timestamp": "2025-12-21T18:54:57.222514+00:00", "meta": {"OBJECT_NAME": "TRANSPORTER-15 T", "OBJECT_ID": "2025-276T", "EPOCH": "2025-12-21T12:23:20.558688", "MEAN_MOTION": 15.16993617, "ECCENTRICITY": 0.00046503, "INCLINATION": 97.4456, "RA_OF_ASC_NODE": 67.1227, "ARG_OF_PERICENTER": 247.5877, "MEAN_ANOMALY": 112.4864, "EPHEMERIS_TYPE": 0, "CLASSIFICATION_TYPE": "U", "NORAD_CAT_ID": 66683, "ELEMENT_SET_NO": 999, "REV_AT_EPOCH": 345, "BSTAR": 0.00039199879, "MEAN_MOTION_DOT": 7.682e-05, "MEAN_MOTION_DDOT": 0}, "tle": {"line1": "1 66683U 25276T   25355.51621017  .00007682  00000+0  39200-3 0  9993", "line2": "2 66683  97.4456  67.1227 0004650 247.5877 112.4864 15.16993617  3452"}}, "geometry": {"type": "Point", "coordinates": [60.19076510008574, 43.778520412470975]}}, {"type": "Feature", "properties": {"norad_id": 66684, "name": "TRANSPORTER-15 U", "group": "last-30-days", "lat": 59.44643293296549, "lon": 54.59971297122798, "alt_km": 511.3922514477481, "timestamp": "2025-12-21T18:54:57.222524+00:00", "meta": {"OBJECT_NAME": "TRANSPORTER-15 U", "OBJECT_ID": "2025-276U", "EPOCH": "2025-12-21T10:44:13.286400", "MEAN_MOTION": 15.17275168, "ECCENTRICITY": 0.00044447, "INCLINATION": 97.448, "RA_OF_ASC_NODE": 67.0686, "ARG_OF_PERICENTER": 246.2895, "MEAN_ANOMALY": 113.7873, "EPHEMERIS_TYPE": 0, "CLASSIFICATION_TYPE": "U", "NORAD_CAT_ID": 66684, "ELEMENT_SET_NO": 999, "REV_AT_EPOCH": 344, "BSTAR": 0.00045817718, "MEAN_MOTION_DOT": 9.064e-05, "MEAN_MOTION_DDOT": 0}, "tle": {"line1": "1 66684U 25276U   25355.44737600  .00009064  00000+0  45818-3 0  9990", "line2": "2 66684  97.4480  67.0686 0004444 246.2895 113.7873 15.17275168  3443"}}, "geometry": {"type": "Point", "coordinates": [54.59971297122798, 59.44643293296549]}}, {"type": "Feature", "properties": {"norad_id": 66685, "name": "TRANSPORTER-15 V", "group": "last-30-days", "lat": 65.94065437049693, "lon": 50.36565317646714, "alt_km": 509.5805570690227, "timestamp": "2025-12-21T18:54:57.222538+00:00", "meta": {"OBJECT_NAME": "TRANSPORTER-15 V", "OBJECT_ID": "2025-276V", "EPOCH": "2025-12-21T12:17:28.894272", "MEAN_MOTION": 15.1753371, "ECCENTRICITY": 0.00045173, "INCLINATION": 97.4424, "RA_OF_ASC_NODE": 67.1193, "ARG_OF_PERICENTER": 272.8737, "MEAN_ANOMALY": 87.198, "EPHEMERIS_TYPE": 0, "CLASSIFICATION_TYPE": "U", "NORAD_CAT_ID": 66685, "ELEMENT_SET_NO": 999, "REV_AT_EPOCH": 345, "BSTAR": 0.0043500157, "MEAN_MOTION_DOT": 0.00088212, "MEAN_MOTION_DDOT": 0}, "tle": {"line1": "1 66685U 25276V   25355.51213998  .00088212  00000+0  43500-2 0  9995", "line2": "2 66685  97.4424  67.1193 0004517 272.8737  87.1980 15.17533710  3451"}}, "geometry": {"type": "Point", "coordinates": [50.36565317646714, 65.94065437049693]}}]}